INTELSAT 901 (IS-901)   
1 26824U 01024A   18163.19771861 -.00000210  00000-0  00000+0 0  9991
2 26824   0.2328  94.0638 0002116 341.5273 226.5770  1.00271078 62243
ASTRA 2C                
1 26853U 01025A   18162.87978677  .00000141  00000-0  00000-0 0  9995
2 26853   1.1718  90.3415 0002509 342.3663 167.8807  1.00269334 15707
INTELSAT 902 (IS-902)   
1 26900U 01039A   18163.46177016  .00000036  00000-0  00000+0 0  9999
2 26900   0.0012   6.9500 0003284  87.3500  34.6762  1.00272615 61427
EUTELSAT 12 WEST B      
1 26927U 01042A   18163.20466093 -.00000096  00000-0  00000+0 0  9997
2 26927   0.0641 348.7249 0006090  88.6549 244.2942  1.00272604 61175
DIRECTV 4S              
1 26985U 01052A   18162.79632910 -.00000109  00000-0  00000-0 0  9994
2 26985   0.0184 290.6546 0002594 134.8714  20.0424  1.00271417 21968
ECHOSTAR 7              
1 27378U 02006A   18163.09548781  .00000003  00000-0  00000+0 0  9998
2 27378   0.0135  24.9937 0001253  49.3793 101.5562  1.00271600 59717
INTELSAT 904 (IS-904)   
1 27380U 02007A   18163.54771595  .00000139  00000-0  00000+0 0  9993
2 27380   0.0134 348.3014 0002298  95.1457  59.6387  1.00270110 59740
TDRS 9                  
1 27389U 02011A   18163.30454410 -.00000100  00000-0  00000+0 0  9994
2 27389   5.9861  74.9008 0019045 266.5022  16.7604  1.00272354 61094
JCSAT 2A                
1 27399U 02015A   18162.89367111 -.00000251  00000-0  00000-0 0  9991
2 27399   1.2508  90.4710 0005948 194.7989  29.6790  1.00271892 59548
ASTRA 3A                
1 27400U 02015B   18161.59703892 -.00000277  00000-0  00000-0 0  9998
2 27400   4.4961  67.1066 0002761  13.2502 346.4825  1.00269062 59365
INTELSAT 903 (IS-903)   
1 27403U 02016A   18162.86879505 -.00000220  00000-0  00000-0 0  9996
2 27403   0.6169  94.2382 0002704 356.9262  90.2607  1.00271185 16325
NSS-7                   
1 27414U 02019A   18163.73250646 -.00000155  00000-0  00000+0 0  9993
2 27414   2.6465  81.1170 0002285 355.4361  68.1594  1.00272172 59217
DIRECTV 5 (TEMPO 1)     
1 27426U 02023A   18162.58412945 -.00000051  00000-0  00000-0 0  9991
2 27426   0.0192 349.1013 0003146  92.1122 278.8222  1.00269790 58982
INTELSAT 905 (IS-905)   
1 27438U 02027A   18163.19285389 -.00000180  00000-0  00000+0 0  9998
2 27438   0.0137 267.7670 0002622 148.1921 249.4462  1.00272084 58615
EXPRESS-A4              
1 27441U 02029A   18163.24846824 -.00000245  00000-0  00000+0 0  9999
2 27441   6.6565  54.3212 0008893  69.3648  11.8377  1.00271133 58625
GALAXY 3C (G-3C)        
1 27445U 02030A   18162.54220762 -.00000146  00000-0  00000-0 0  9995
2 27445   0.0168 318.2684 0002006  10.0679  31.6626  1.00271625 17222
EUTELSAT 5 WEST A       
1 27460U 02035A   18162.29301968 -.00000037  00000-0  00000-0 0  9996
2 27460   0.0425  14.8859 0005678  65.1004 280.0892  1.00271562 58274
N-STAR C                
1 27461U 02035B   18163.47657609 -.00000311  00000-0  00000+0 0  9998
2 27461   5.2934  62.8474 0005058   4.3110 141.1262  1.00272342 58318
EUTELSAT 36 WEST A      
1 27508U 02040A   18162.11482751  .00000059  00000-0  00000-0 0  9999
2 27508   0.0702  31.4757 0002386  79.9235 248.6375  1.00274429 57842
METEOSAT-8 (MSG-1)      
1 27509U 02040B   18162.32195533  .00000143  00000-0  00000-0 0  9996
2 27509   5.4572  56.9992 0000694  33.8246 325.9657  1.00271331 57909
INTELSAT 906 (IS-906)   
1 27513U 02041A   18163.46220633  .00000018  00000-0  00000+0 0  9998
2 27513   0.0116 299.6460 0003207 157.9316  33.6987  1.00272317 57627
HISPASAT 1D             
1 27528U 02044A   18163.01924292 -.00000213  00000-0  00000+0 0  9998
2 27528   0.0407 312.3337 0003217 111.4837 173.4123  1.00267803 57591
TDRS 10                 
1 27566U 02055A   18161.92182880  .00000081  00000-0  00000-0 0  9992
2 27566   5.6480  56.8621 0007616 267.5857  92.1255  1.00272865 56870
NSS-6                   
1 27603U 02057A   18162.89402005 -.00000265  00000-0  00000-0 0  9992
2 27603   0.0396  97.8985 0000601 336.2547 242.8685  1.00269788 56749
NIMIQ 2                 
1 27632U 02062A   18162.55026947 -.00000224  00000-0  00000-0 0  9995
2 27632   2.7491  80.4054 0001568 213.7523 145.7426  0.99461498 14856
INTELSAT 907 (IS-907)   
1 27683U 03007A   18163.35248915 -.00000199  00000-0  00000+0 0  9991
2 27683   0.0147 269.2922 0002216 180.1522 270.5909  1.00272767 56041
GALAXY 12 (G-12)        
1 27715U 03013B   18162.70737890  .00000063  00000-0  00000+0 0  9996
2 27715   0.0116  29.3538 0001900  80.6919 275.5923  1.00271856 55659
ASIASAT 4               
1 27718U 03014A   18161.89771880  .00000159  00000-0  00000+0 0  9992
2 27718   0.0514 117.0441 0000591 178.0587 325.5102  1.00275339 55554
HELLAS-SAT 2            
1 27811U 03020A   18163.17118931  .00000156  00000-0  00000+0 0  9995
2 27811   0.2369 109.1166 0003062  76.5179 175.4316  1.00274206 54997
THURAYA-2               
1 27825U 03026A   18162.23776979  .00000132  00000-0  00000+0 0  9998
2 27825   5.2234  30.5034 0005008  42.0182 316.6179  1.00275293 54985
OPTUS C1                
1 27831U 03028B   18163.54586390 -.00000144  00000-0  00000+0 0  9992
2 27831   0.0268 113.8312 0003169 344.0342 155.4533  1.00271000 54979
ECHOSTAR 12 (RAINBOW 1) 
1 27852U 03033A   18163.07328975 -.00000195  00000-0  00000+0 0  9998
2 27852   0.0137 319.1235 0001418 106.6960 134.5379  1.00271703 54601
GALAXY 23 (G-23)        
1 27854U 03034A   18163.54189321  .00000016  00000-0  00000+0 0  9994
2 27854   0.0074 342.3861 0003194 103.2826 249.2304  1.00271710 59192
GALAXY 13 (HORIZONS-1)  
1 27954U 03044A   18163.22268957  .00000052  00000-0  00000+0 0  9994
2 27954   0.0186  91.4961 0000410  12.1100 110.0419  1.00270314 53815
YAMAL 202               
1 28089U 03053A   18163.20952073  .00000123  00000-0  00000+0 0  9990
2 28089   0.0594 103.4515 0003984 317.2998 324.1752  1.00274562 53334
EXPRESS-AM22 (SESAT 2)  
1 28134U 03060A   18163.03429536 -.00000133  00000-0  00000+0 0  9995
2 28134   1.2212  90.0534 0000742 210.8564  51.8500  1.00270895 52927
AMC-10 (GE-10)          
1 28154U 04003A   18163.21619701  .00000092  00000-0  00000+0 0  9993
2 28154   0.0196 309.3550 0002540 131.9896 121.9768  1.00270953 52582
ABS-4 (MOBISAT-1)       
1 28184U 04007A   18163.46159569  .00000044  00000-0  00000+0 0  9995
2 28184   0.0160 318.1196 0002103 126.9209  42.8944  1.00272657 52239
EUTELSAT 7A             
1 28187U 04008A   18162.87647181  .00000052  00000-0  00000-0 0  9995
2 28187   0.0647   7.0065 0004414  95.8394 119.8290  1.00271100 52014
DIRECTV 7S              
1 28238U 04016A   18162.81646938  .00000006  00000-0  00000-0 0  9993
2 28238   0.0189 315.0761 0002688 126.5738 353.3148  1.00272867 51727
AMC-11 (GE-11)          
1 28252U 04017A   18162.63360715  .00000074  00000-0  00000-0 0  9991
2 28252   0.0254  39.6149 0002431  45.3901 272.0207  1.00273601 51574
INTELSAT 10-02          
1 28358U 04022A   18163.09030074 -.00000008  00000-0  00000+0 0  9994
2 28358   0.0140   3.7811 0000620 303.0516 345.0562  1.00269737 51274
APSTAR 5 (TELSTAR 18)   
1 28364U 04024A   18162.90256917 -.00000290  00000-0  00000-0 0  9992
2 28364   0.0330  81.4843 0003004 355.1945 286.4194  1.00273248 51263
ANIK F2                 
1 28378U 04027A   18162.92472707 -.00000046  00000-0  00000+0 0  9997
2 28378   0.0102   5.1036 0000258 253.8240 223.1037  1.00272270 51002
AMC-15                  
1 28446U 04041A   18163.18521660 -.00000085  00000-0  00000+0 0  9994
2 28446   0.0349  56.1071 0002511  12.2049 153.7710  1.00271782 50028
AMC-16                  
1 28472U 04048A   18163.50422986 -.00000203  00000-0  00000+0 0  9999
2 28472   0.0175  23.7372 0002444  69.7511 263.8087  1.00270744 49478
NSS-10 (AMC-12)         
1 28526U 05003A   18163.22656319 -.00000247  00000-0  00000+0 0  9997
2 28526   0.0135  21.9247 0002463  61.0800 221.6150  1.00271611 48962
XTAR-EUR                
1 28542U 05005A   18162.19873509  .00000156  00000-0  00000+0 0  9992
2 28542   0.0348  90.2894 0002666 338.1662 291.5840  1.00270530 48828
XM-3 (RHYTHM)           
1 28626U 05008A   18163.17549647 -.00000202  00000-0  00000+0 0  9993
2 28626   0.0126 136.9172 0000326 164.4643 297.1538  1.00268484 48711
INMARSAT 4-F1           
1 28628U 05009A   18162.92520366 -.00000258  00000-0  00000+0 0  9996
2 28628   2.9245  17.0301 0002975  66.0660 293.6898  1.00272977 48326
APSTAR 6                
1 28638U 05012A   18162.61458972 -.00000314  00000-0  00000-0 0  9994
2 28638   0.0671  98.2310 0002491 351.6851 165.1679  1.00268886 73050
SPACEWAY 1              
1 28644U 05015A   18163.36597289 -.00000098  00000-0  00000+0 0  9990
2 28644   0.0465 180.7367 0000276  61.2612  47.4771  1.00268559 48161
DIRECTV 8               
1 28659U 05019A   18163.55575360 -.00000113  00000-0  00000+0 0  9995
2 28659   0.0147 336.3342 0002725  99.5274 284.1784  1.00274693 47849
GALAXY 28 (G-28)        
1 28702U 05022A   18163.50344475 -.00000182  00000-0  00000+0 0  9990
2 28702   0.0177 330.4784 0000511 346.9611  35.5861  1.00271422 47482
EXPRESS-AM3             
1 28707U 05023A   18163.54174128 -.00000319  00000-0  00000+0 0  9998
2 28707   0.1702  93.4467 0001526 290.8909 174.5097  1.00269795 47496
THAICOM 4               
1 28786U 05028A   18162.54000307 -.00000358  00000-0  00000-0 0  9990
2 28786   0.0123 345.3341 0002011  95.0959 133.2961  1.00269917 22928
GALAXY 14 (G-14)        
1 28790U 05030A   18163.23862848  .00000040  00000-0  00000+0 0  9997
2 28790   0.0122   5.2531 0002151  74.2437 141.9367  1.00273098 46950
ANIK F1R                
1 28868U 05036A   18162.63831789 -.00000069  00000-0  00000-0 0  9995
2 28868   0.0173  19.3609 0002945  33.6286 329.4172  1.00271364 46801
GALAXY 15 (G-15)        
1 28884U 05041A   18162.63317097  .00000084  00000-0  00000-0 0  9996
2 28884   0.0205 323.3100 0001991 119.7294 271.8148  1.00272288 46397
